BRITE-PL2 (HEWELIUSZ)   
1 40119U 14049B   26068.87400651  .00002742  00000+0  26097-3 0  9997
2 40119  97.8982 180.2053 0015445  80.5248 279.7716 14.94186201626611
STARLINK-5526           
1 56496U 23064BA  26068.48018160 -.00000473  00000+0 -31849-4 0  9999
2 56496  69.9993 104.8865 0003047 264.9990  95.0821 14.98328014156201
